[{"OBJECT_NAME":"STARLINK-32701","OBJECT_ID":"2025-003Z","EPOCH":"2026-03-09T23:10:54.661152","MEAN_MOTION":15.27600706,"ECCENTRICITY":0.00032858,"INCLINATION":42.9999,"RA_OF_ASC_NODE":287.4223,"ARG_OF_PERICENTER":242.1774,"MEAN_ANOMALY":117.8745,"EPHEMERIS_TYPE":0,"CLASSIFICATION_TYPE":"U","NORAD_CAT_ID":62510,"ELEMENT_SET_NO":999,"REV_AT_EPOCH":6659,"BSTAR":0.0014399808,"MEAN_MOTION_DOT":0.00039605,"MEAN_MOTION_DDOT":0},{"OBJECT_NAME":"TEVEL2-3","OBJECT_ID":"2025-052J","EPOCH":"2026-03-09T15:29:22.754400","MEAN_MOTION":15.30377031,"ECCENTRICITY":0.0004761,"INCLINATION":97.3994,"RA_OF_ASC_NODE":324.7775,"ARG_OF_PERICENTER":105.7353,"MEAN_ANOMALY":254.4413,"EPHEMERIS_TYPE":0,"CLASSIFICATION_TYPE":"U","NORAD_CAT_ID":63218,"ELEMENT_SET_NO":999,"REV_AT_EPOCH":5485,"BSTAR":0.00069446,"MEAN_MOTION_DOT":0.00020365,"MEAN_MOTION_DDOT":0}]
